COSMOS 2251 DEB         
1 33842U 93036CK  17345.95087528  .00000137  00000-0  53436-4 0  9991
2 33842  74.0346 212.3887 0051078 314.6980 156.6800 14.37806240462934
